{
  "norad_id": 49020,
  "name": "NINGXIA-1 8",
  "history": [
    {
      "epoch": "2026-03-28T21:14:03.030720",
      "apogee_km": 870.4272180005273,
      "perigee_km": 858.4118167382103,
      "latitude_deg": 42.7302966319337,
      "longitude_deg": -113.0632992000319,
      "semi_major_axis_km": 7242.5565173693685,
      "eccentricity": 0.0008295,
      "inclination_deg": 44.9938,
      "raan_deg": 228.859,
      "arg_perigee_deg": 222.585,
      "mean_anomaly_deg": 137.4344,
      "mean_motion_rev_day": 14.08526177
    }
  ]
}