{"fetched_at":"2026-03-29T16:36:15Z","count":15609,"tles":[{"name":"NINGXIA-1 8","line1":"1 49020U 21064C   26087.88475730  .00000134  00000+0  15374-3 0  9993","line2":"2 49020  44.9938 228.8590 0008295 222.5850 137.4344 14.08526177242900","category":"Other"}]}